[
    {
        "Altitude(m)": 607911.0253930938,
        "Argument of Periapsis(deg)": 0.0,
        "Eccentricity": 0.0,
        "Inclination(deg)": 60.0,
        "Latitude(deg)": -14.293036442047365,
        "Longitude(deg)": -71.55734241305042,
        "Mean Anomaly(deg)": -163.63640000000004,
        "RAAN(deg)": 200.0,
        "Satellite Name": "Test1 892",
        "Satellite Number": 892,
        "Semi-Major Axis(m)": 6980739.136638005,
        "Time(s)": 0
    },
    {
        "Altitude(m)": 608060.2595066284,
        "Argument of Periapsis(deg)": 0.00010418945913296404,
        "Eccentricity": 0.0,
        "Inclination(deg)": 60.0,
        "Latitude(deg)": -14.826697636341917,
        "Longitude(deg)": -71.26873245867442,
        "Mean Anomaly(deg)": -163.0162938545382,
        "RAAN(deg)": 199.99957995086027,
        "Satellite Name": "Test1 892",
        "Satellite Number": 892,
        "Semi-Major Axis(m)": 6980739.136638005,
        "Time(s)": 10
    }
]